OBJECT_NAME,OBJECT_ID,EPOCH,MEAN_MOTION,ECCENTRICITY,INCLINATION,RA_OF_ASC_NODE,ARG_OF_PERICENTER,MEAN_ANOMALY,EPHEMERIS_TYPE,CLASSIFICATION_TYPE,NORAD_CAT_ID,ELEMENT_SET_NO,REV_AT_EPOCH,BSTAR,MEAN_MOTION_DOT,MEAN_MOTION_DDOT
CUBEBUG-2 (LO-74),2013-066AA,2026-07-06T10:06:24.412032,14.93929798,.0056283,97.8914,136.4829,325.3135,34.4418,0,U,39440,999,67986,.35018E-3,.3781E-4,0
FUNCUBE-1 (AO-73),2013-066AE,2026-07-06T21:00:48.915360,15.09744377,.0037536,97.8282,159.7358,134.9216,225.5068,0,U,39444,999,68263,.37306E-3,.6051E-4,0
UWE-3,2013-066AG,2026-07-06T20:46:43.116384,14.97165972,.0047462,97.8701,144.0754,253.6272,105.9728,0,U,39446,999,68052,.20239E-3,.2328E-4,0
UNISAT-6,2014-033C,2026-07-06T08:40:52.679712,14.88341746,.00449175,97.7903,339.7390,7.1111,353.0733,0,U,40012,999,64901,.31193135E-3,.2884E-4,0
DUCHIFAT-1,2014-033M,2026-07-06T16:39:29.772576,15.69242725,.0001149,98.0433,249.6610,272.1887,87.9241,0,U,40021,999,65880,.10018E-2,.117855E-2,0
QB50P1,2014-033R,2026-07-06T14:10:25.751712,15.18574752,.0009731,98.0968,200.1005,150.6078,209.5704,0,U,40025,999,65597,.34846E-3,.7136E-4,0
LILACSAT-2,2015-049K,2026-07-06T21:00:59.456160,15.52141779,.000769,97.4627,225.4713,166.8892,193.2561,0,U,40908,999,59880,.2539E-3,.15277E-3,0
FOX-1A (AO-85),2015-058D,2026-07-06T11:14:23.368992,14.91055175,.0131693,64.7734,219.0599,49.1227,312.1206,0,U,40967,999,11644,.22162E-3,.2418E-4,0
CAS-2T & KS-1Q,2016-066G,2026-07-06T16:51:06.071040,14.44756780,.034265,98.3816,263.2151,70.4684,293.3172,0,U,41847,999,50761,.19925E-3,.1373E-4,0
RADFXSAT (FOX-1B),2017-073E,2026-07-06T14:06:09.722592,15.12985163,.0148166,97.4676,54.4063,261.5365,96.9050,0,U,43017,999,46832,.26701E-3,.6099E-4,0
DIWATA-2B,2018-084H,2026-07-06T20:12:47.420064,15.00543978,.0013068,98.1212,24.9093,109.5448,250.7187,0,U,43678,999,41916,.25346E-3,.3137E-4,0
ES'HAIL 2,2018-090A,2026-07-06T20:45:20.714976,1.00272249,.0002313,0.0211,288.1789,222.3274,111.4810,0,U,43700,999,2787,0,.159E-5,0
FOX-1CLIFF (AO-95),2018-099N,2026-07-06T16:08:04.266240,15.27149327,.0006911,97.4371,247.8507,276.3319,83.7133,0,U,43770,999,41619,.34206E-3,.9039E-4,0
ITASAT,2018-099AE,2026-07-06T17:11:00.697056,15.19312324,.0010723,97.4015,238.8395,284.8338,75.1709,0,U,43786,999,41587,.22248E-3,.4636E-4,0
JY1SAT (JO-97),2018-099AX,2026-07-05T14:55:56.187840,15.34293802,.00059834,97.4115,249.5264,188.7802,171.3337,0,U,43803,999,41645,.68069126E-3,.22572E-3,0
UWE-4,2018-111E,2026-07-05T18:47:25.949472,15.47365913,.00046839,97.5843,116.0459,235.7756,124.3050,0,U,43880,999,41365,.84254427E-3,.43173E-3,0
TIANYAN 01,2019-093C,2026-07-06T15:10:48.813024,14.86557070,.00143422,97.7520,259.3903,28.9272,331.2736,0,U,44881,999,35430,.24425858E-3,.2114E-4,0
RS-44 & BREEZE-KM R/B,2019-096E,2026-07-06T20:42:54.961632,12.79748950,.0218594,82.5236,326.6298,98.3774,264.2172,0,U,44909,999,30486,.35196E-4,.22E-6,0
SALSAT,2020-068K,2026-07-06T13:41:31.479072,15.30088375,.0008365,97.8859,191.8188,225.6933,134.3621,0,U,46495,999,31832,.2235E-3,.6429E-4,0
XW-3 (CAS-9),2021-131B,2026-07-06T20:08:05.771616,14.41378117,.0005042,98.4982,280.1230,51.2523,308.9116,0,U,50466,999,23794,.26825E-3,.825E-5,0
GREENCUBE (IO-117),2022-080E,2026-07-06T07:51:42.766848,6.42583225,.0008965,70.1428,291.5893,285.5832,74.3838,0,U,53109,999,9329,0,-.3E-7,0
UMKA 1 (RS40S),2023-091G,2026-07-06T19:57:04.061664,15.21058028,.0013759,97.5037,246.4545,56.6710,303.5840,0,U,57172,999,16699,.22037E-3,.4836E-4,0
CUBESX-HSE 3 (RS42S),2023-091N,2026-07-06T20:10:58.957824,15.31740654,.0010559,97.5078,253.6818,31.4602,328.7269,0,U,57178,999,16743,.32784E-3,.9987E-4,0
MONITOR-3 (RS58S),2023-091Q,2026-07-06T20:15:16.525728,15.28260252,.0011877,97.5069,251.4381,38.2651,321.9429,0,U,57180,999,16729,.3072E-3,.84E-4,0
MONITOR-4 (RS57S),2023-091S,2026-07-06T19:43:32.763072,15.28345651,.0011875,97.5063,251.3882,38.6901,321.5186,0,U,57182,999,16729,.28502E-3,.7808E-4,0
MONITOR-2 (RS39S),2023-091U,2026-07-06T19:28:42.660768,15.19102670,.0012155,97.5059,245.9686,51.0392,309.1923,0,U,57184,999,16693,.18488E-3,.3817E-4,0
SVYATOBOR 1 (RS60S),2023-091X,2026-07-06T20:27:14.184000,15.26968333,.0009603,97.5076,251.7811,33.2161,326.9679,0,U,57187,999,16731,.27248E-3,.7148E-4,0
VIZARD-METEO (RS38S),2023-091Z,2026-07-06T19:37:14.439072,15.36687284,.0006487,97.5078,257.7036,12.6912,347.4494,0,U,57189,999,16770,.37131E-3,.13237E-3,0
POLYTECH-UNIVERSE 3 (RS46S),2023-091AB,2026-07-06T20:04:03.817056,15.19313113,.0016716,97.5034,245.4972,64.7740,295.5225,0,U,57191,999,16693,.21655E-3,.4519E-4,0
UTMN 2 (RS27S),2023-091AP,2026-07-06T20:20:59.864640,15.32562002,.0007626,97.5074,255.3467,20.6843,339.4706,0,U,57203,999,16755,.32212E-3,.10059E-3,0
