CUBEBUG-2 (LO-74)       
1 39440U 13066AA  26187.42111588  .00003781  00000+0  35018-3 0  9998
2 39440  97.8914 136.4829 0056283 325.3135  34.4418 14.93929798679860
FUNCUBE-1 (AO-73)       
1 39444U 13066AE  26187.87556615  .00006051  00000+0  37306-3 0  9990
2 39444  97.8282 159.7358 0037536 134.9216 225.5068 15.09744377682630
UWE-3                   
1 39446U 13066AG  26187.86577681  .00002328  00000+0  20239-3 0  9997
2 39446  97.8701 144.0754 0047462 253.6272 105.9728 14.97165972680529
UNISAT-6                
1 40012U 14033C   26187.36172083  .00002884  00000+0  31193-3 0  9993
2 40012  97.7903 339.7390 0044917   7.1111 353.0733 14.88341746649014
DUCHIFAT-1              
1 40021U 14033M   26187.69409459  .00117855  00000+0  10018-2 0  9996
2 40021  98.0433 249.6610 0001149 272.1887  87.9241 15.69242725658805
QB50P1                  
1 40025U 14033R   26187.59057583  .00007136  00000+0  34846-3 0  9992
2 40025  98.0968 200.1005 0009731 150.6078 209.5704 15.18574752655972
LILACSAT-2              
1 40908U 15049K   26187.87568815  .00015277  00000+0  25390-3 0  9995
2 40908  97.4627 225.4713 0007690 166.8892 193.2561 15.52141779598803
FOX-1A (AO-85)          
1 40967U 15058D   26187.46832603  .00002418  00000+0  22162-3 0  9991
2 40967  64.7734 219.0599 0131693  49.1227 312.1206 14.91055175116441
CAS-2T & KS-1Q          
1 41847U 16066G   26187.70215360  .00001373  00000+0  19925-3 0  9993
2 41847  98.3816 263.2151 0342650  70.4684 293.3172 14.44756780507612
RADFXSAT (FOX-1B)       
1 43017U 17073E   26187.58761253  .00006099  00000+0  26701-3 0  9996
2 43017  97.4676  54.4063 0148166 261.5365  96.9050 15.12985163468325
DIWATA-2B               
1 43678U 18084H   26187.84221551  .00003137  00000+0  25346-3 0  9997
2 43678  98.1212  24.9093 0013068 109.5448 250.7187 15.00543978419162
ES'HAIL 2               
1 43700U 18090A   26187.86482309  .00000159  00000+0  00000+0 0  9999
2 43700   0.0211 288.1789 0002313 222.3274 111.4810  1.00272249 27871
FOX-1CLIFF (AO-95)      
1 43770U 18099N   26187.67227160  .00009039  00000+0  34206-3 0  9991
2 43770  97.4371 247.8507 0006911 276.3319  83.7133 15.27149327416192
ITASAT                  
1 43786U 18099AE  26187.71598029  .00004636  00000+0  22248-3 0  9999
2 43786  97.4015 238.8395 0010723 284.8338  75.1709 15.19312324415878
JY1SAT (JO-97)          
1 43803U 18099AX  26186.62217810  .00022572  00000+0  68069-3 0  9994
2 43803  97.4115 249.5264 0005983 188.7802 171.3337 15.34293802416450
UWE-4                   
1 43880U 18111E   26186.78293923  .00043173  00000+0  84254-3 0  9994
2 43880  97.5843 116.0459 0004683 235.7756 124.3050 15.47365913413651
TIANYAN 01              
1 44881U 19093C   26187.63250941  .00002114  00000+0  24426-3 0  9999
2 44881  97.7520 259.3903 0014342  28.9272 331.2736 14.86557070354305
RS-44 & BREEZE-KM R/B   
1 44909U 19096E   26187.86313613  .00000022  00000+0  35196-4 0  9997
2 44909  82.5236 326.6298 0218594  98.3774 264.2172 12.79748950304864
SALSAT                  
1 46495U 20068K   26187.57050323  .00006429  00000+0  22350-3 0  9998
2 46495  97.8859 191.8188 0008365 225.6933 134.3621 15.30088375318321
XW-3 (CAS-9)            
1 50466U 21131B   26187.83895569  .00000825  00000+0  26825-3 0  9996
2 50466  98.4982 280.1230 0005042  51.2523 308.9116 14.41378117237948
GREENCUBE (IO-117)      
1 53109U 22080E   26187.32757832 -.00000003  00000+0  00000+0 0  9993
2 53109  70.1428 291.5893 0008965 285.5832  74.3838  6.42583225 93293
UMKA 1 (RS40S)          
1 57172U 23091G   26187.83129701  .00004836  00000+0  22037-3 0  9999
2 57172  97.5037 246.4545 0013759  56.6710 303.5840 15.21058028166991
CUBESX-HSE 3 (RS42S)    
1 57178U 23091N   26187.84096016  .00009987  00000+0  32784-3 0  9990
2 57178  97.5078 253.6818 0010559  31.4602 328.7269 15.31740654167439
MONITOR-3 (RS58S)       
1 57180U 23091Q   26187.84394127  .00008400  00000+0  30720-3 0  9994
2 57180  97.5069 251.4381 0011877  38.2651 321.9429 15.28260252167290
MONITOR-4 (RS57S)       
1 57182U 23091S   26187.82190698  .00007808  00000+0  28502-3 0  9997
2 57182  97.5063 251.3882 0011875  38.6901 321.5186 15.28345651167294
MONITOR-2 (RS39S)       
1 57184U 23091U   26187.81160487  .00003817  00000+0  18488-3 0  9999
2 57184  97.5059 245.9686 0012155  51.0392 309.1923 15.19102670166930
SVYATOBOR 1 (RS60S)     
1 57187U 23091X   26187.85224750  .00007148  00000+0  27248-3 0  9995
2 57187  97.5076 251.7811 0009603  33.2161 326.9679 15.26968333167319
VIZARD-METEO (RS38S)    
1 57189U 23091Z   26187.81752823  .00013237  00000+0  37131-3 0  9998
2 57189  97.5078 257.7036 0006487  12.6912 347.4494 15.36687284167700
POLYTECH-UNIVERSE 3 (R*)
1 57191U 23091AB  26187.83615529  .00004519  00000+0  21655-3 0  9991
2 57191  97.5034 245.4972 0016716  64.7740 295.5225 15.19313113166938
UTMN 2 (RS27S)          
1 57203U 23091AP  26187.84791510  .00010059  00000+0  32212-3 0  9998
2 57203  97.5074 255.3467 0007626  20.6843 339.4706 15.32562002167559
